OBJECT_NAME,OBJECT_ID,EPOCH,MEAN_MOTION,ECCENTRICITY,INCLINATION,RA_OF_ASC_NODE,ARG_OF_PERICENTER,MEAN_ANOMALY,EPHEMERIS_TYPE,CLASSIFICATION_TYPE,NORAD_CAT_ID,ELEMENT_SET_NO,REV_AT_EPOCH,BSTAR,MEAN_MOTION_DOT,MEAN_MOTION_DDOT
ONEWEB-0691,2024-188F,2026-07-11T12:49:43.603680,13.11415450,.00017727,87.8898,16.1272,76.8566,283.2760,0,U,61599,999,8767,-.13264237E-2,-.457E-5,0
ONEWEB-0692,2024-188G,2026-07-11T13:19:01.737408,13.11418816,.0002526,87.8884,16.2314,98.5170,261.6244,0,U,61600,999,8766,-.5341E-3,-.177E-5,0
ONEWEB-0693,2024-188H,2026-07-11T11:52:41.015424,13.17649911,.00012921,87.9133,1.0580,111.9499,248.1770,0,U,61601,999,8908,.11436393E-4,.17E-6,0
ONEWEB-0695,2024-188J,2026-07-11T12:44:50.772480,13.11415424,.00023027,87.8883,16.2283,89.7068,270.4323,0,U,61602,999,8765,-.11926269E-2,-.41E-5,0
ONEWEB-0697,2024-188K,2026-07-11T13:31:14.997792,13.11418484,.0002494,87.8882,16.2121,99.5221,260.6189,0,U,61603,999,8764,.69911E-3,.26E-5,0
ONEWEB-0698,2024-188L,2026-07-11T12:59:29.762880,13.11417007,.00022884,87.8877,16.2304,119.7297,240.4059,0,U,61604,999,8766,-.13986924E-2,-.483E-5,0
ONEWEB-0699,2024-188M,2026-07-11T13:45:31.862880,13.10370565,.0002394,87.8808,31.4053,101.3688,258.7708,0,U,61605,999,8650,-.92643E-3,-.311E-5,0
ONEWEB-0700,2024-188N,2026-07-11T13:47:56.857632,13.10370027,.0002395,87.8849,31.3211,97.3231,262.8169,0,U,61606,999,8649,-.15349E-2,-.523E-5,0
ONEWEB-0701,2024-188P,2026-07-11T14:12:24.748704,13.10375653,.0002484,87.8821,31.4029,101.4324,258.7083,0,U,61607,999,8650,-.1053E-2,-.355E-5,0
ONEWEB-0702,2024-188Q,2026-07-11T12:15:34.141248,13.11414790,.00027887,87.8880,16.1461,97.3520,262.7925,0,U,61608,999,8767,.10821247E-2,.396E-5,0
ONEWEB-0704,2024-188R,2026-07-11T13:55:17.197824,13.10371448,.0002841,87.8823,31.3952,92.8335,267.3117,0,U,61609,999,8648,-.18414E-2,-.63E-5,0
ONEWEB-0705,2024-188S,2026-07-11T14:02:37.962240,13.10373830,.0002757,87.8825,31.4001,76.5457,283.5977,0,U,61610,999,7865,-.17092E-2,-.584E-5,0
ONEWEB-0706,2024-188T,2026-07-11T13:40:38.578080,13.10370124,.0002416,87.8815,31.4066,88.6036,271.5368,0,U,61611,999,8657,-.10979E-2,-.371E-5,0
ONEWEB-0707,2024-188U,2026-07-11T13:50:23.309088,13.10370009,.0002412,87.8822,31.4007,88.7938,271.3466,0,U,61612,999,8651,-.16716E-2,-.571E-5,0
ONEWEB-0708,2024-188V,2026-07-11T14:17:16.992384,13.10375112,.0002052,87.8819,31.4133,72.4042,287.7309,0,U,61613,999,8649,-.94565E-3,-.317E-5,0
