[
  {
    "name": "ONEWEB-0691",
    "noradId": "61599",
    "line1": "1 61599U 24188F   26192.53453245 -.00000457  00000+0 -13264-2 0  9999",
    "line2": "2 61599  87.8898  16.1272 0001772  76.8566 283.2760 13.11415450 87675"
  },
  {
    "name": "ONEWEB-0692",
    "noradId": "61600",
    "line1": "1 61600U 24188G   26192.55488122 -.00000177  00000+0 -53410-3 0  9993",
    "line2": "2 61600  87.8884  16.2314 0002526  98.5170 261.6244 13.11418816 87666"
  },
  {
    "name": "ONEWEB-0693",
    "noradId": "61601",
    "line1": "1 61601U 24188H   26192.49491916  .00000017  00000+0  11436-4 0  9996",
    "line2": "2 61601  87.9133   1.0580 0001292 111.9499 248.1770 13.17649911 89085"
  },
  {
    "name": "ONEWEB-0695",
    "noradId": "61602",
    "line1": "1 61602U 24188J   26192.53114320 -.00000410  00000+0 -11926-2 0  9994",
    "line2": "2 61602  87.8883  16.2283 0002302  89.7068 270.4323 13.11415424 87659"
  },
  {
    "name": "ONEWEB-0697",
    "noradId": "61603",
    "line1": "1 61603U 24188K   26192.56336803  .00000260  00000+0  69911-3 0  9999",
    "line2": "2 61603  87.8882  16.2121 0002494  99.5221 260.6189 13.11418484 87641"
  },
  {
    "name": "ONEWEB-0698",
    "noradId": "61604",
    "line1": "1 61604U 24188L   26192.54131670 -.00000483  00000+0 -13987-2 0  9993",
    "line2": "2 61604  87.8877  16.2304 0002288 119.7297 240.4059 13.11417007 87662"
  },
  {
    "name": "ONEWEB-0699",
    "noradId": "61605",
    "line1": "1 61605U 24188M   26192.57328545 -.00000311  00000+0 -92643-3 0  9993",
    "line2": "2 61605  87.8808  31.4053 0002394 101.3688 258.7708 13.10370565 86507"
  },
  {
    "name": "ONEWEB-0700",
    "noradId": "61606",
    "line1": "1 61606U 24188N   26192.57496363 -.00000523  00000+0 -15349-2 0  9990",
    "line2": "2 61606  87.8849  31.3211 0002395  97.3231 262.8169 13.10370027 86495"
  },
  {
    "name": "ONEWEB-0701",
    "noradId": "61607",
    "line1": "1 61607U 24188P   26192.59195311 -.00000355  00000+0 -10530-2 0  9992",
    "line2": "2 61607  87.8821  31.4029 0002484 101.4324 258.7083 13.10375653 86504"
  },
  {
    "name": "ONEWEB-0702",
    "noradId": "61608",
    "line1": "1 61608U 24188Q   26192.51081182  .00000396  00000+0  10821-2 0  9991",
    "line2": "2 61608  87.8880  16.1461 0002788  97.3520 262.7925 13.11414790 87674"
  },
  {
    "name": "ONEWEB-0704",
    "noradId": "61609",
    "line1": "1 61609U 24188R   26192.58006016 -.00000630  00000+0 -18414-2 0  9991",
    "line2": "2 61609  87.8823  31.3952 0002841  92.8335 267.3117 13.10371448 86483"
  },
  {
    "name": "ONEWEB-0705",
    "noradId": "61610",
    "line1": "1 61610U 24188S   26192.58516160 -.00000584  00000+0 -17092-2 0  9998",
    "line2": "2 61610  87.8825  31.4001 0002757  76.5457 283.5977 13.10373830 78654"
  },
  {
    "name": "ONEWEB-0706",
    "noradId": "61611",
    "line1": "1 61611U 24188T   26192.56989095 -.00000371  00000+0 -10979-2 0  9999",
    "line2": "2 61611  87.8815  31.4066 0002416  88.6036 271.5368 13.10370124 86578"
  },
  {
    "name": "ONEWEB-0707",
    "noradId": "61612",
    "line1": "1 61612U 24188U   26192.57665867 -.00000571  00000+0 -16716-2 0  9996",
    "line2": "2 61612  87.8822  31.4007 0002412  88.7938 271.3466 13.10370009 86513"
  },
  {
    "name": "ONEWEB-0708",
    "noradId": "61613",
    "line1": "1 61613U 24188V   26192.59533556 -.00000317  00000+0 -94565-3 0  9995",
    "line2": "2 61613  87.8819  31.4133 0002052  72.4042 287.7309 13.10375112 86490"
  }
]